CSS (TIANHE)            
1 48274U 21035A   23243.95257690  .00013708  00000+0  15863-3 0  9997
2 48274  41.4736  55.2174 0010879 276.5121  83.4480 15.61527608133673
